IXPE                    
1 49954U 21121A   24091.58334491  .00009483  00000+0  73023-3 0  9992
2 49954   0.2290 249.2909 0009249 206.4519  30.3378 14.97097364  5898
